{
    "links": {
        "self": "http://www.neowsapp.com/rest/v1/neo/3780999?api_key=iIulBulltgU6a56xZRHN4H3l9WmuAYTsLGpBGhQ2"
    },
    "id": "3780999",
    "neo_reference_id": "3780999",
    "name": "(2017 QA17)",
    "designation": "2017 QA17",
    "nasa_jpl_url": "http://ssd.jpl.nasa.gov/sbdb.cgi?sstr=3780999",
    "absolute_magnitude_h": 23.8,
    "estimated_diameter": {
        "kilometers": {
            "estimated_diameter_min": 0.046190746,
            "estimated_diameter_max": 0.1032856481
        },
        "meters": {
            "estimated_diameter_min": 46.1907460282,
            "estimated_diameter_max": 103.2856480504
        },
        "miles": {
            "estimated_diameter_min": 0.0287015901,
            "estimated_diameter_max": 0.0641787064
        },
        "feet": {
            "estimated_diameter_min": 151.544447199,
            "estimated_diameter_max": 338.8636855496
        }
    },
    "is_potentially_hazardous_asteroid": false,
    "close_approach_data": [
        {
            "close_approach_date": "2017-08-04",
            "close_approach_date_full": "2017-Aug-04 00:14",
            "epoch_date_close_approach": 1501805640000,
            "relative_velocity": {
                "kilometers_per_second": "5.5300891895",
                "kilometers_per_hour": "19908.3210820771",
                "miles_per_hour": "12370.2565079162"
            },
            "miss_distance": {
                "astronomical": "0.1763109196",
                "lunar": "68.5849477244",
                "kilometers": "26375738.029901252",
                "miles": "16389123.6380191976"
            },
            "orbiting_body": "Earth"
        }
    ],
    "orbital_data": {
        "orbit_id": "1",
        "orbit_determination_date": "2017-08-24 08:42:05",
        "first_observation_date": "2017-08-17",
        "last_observation_date": "2017-08-23",
        "data_arc_in_days": 6,
        "observations_used": 13,
        "orbit_uncertainty": "8",
        "minimum_orbit_intersection": ".161559",
        "jupiter_tisserand_invariant": "3.611",
        "epoch_osculation": "2457984.5",
        "eccentricity": ".4411673283301586",
        "semi_major_axis": "2.096443744901644",
        "inclination": "7.732694539332522",
        "ascending_node_longitude": "146.6051302616947",
        "orbital_period": "1108.723484588058",
        "perihelion_distance": "1.171561258968913",
        "perihelion_argument": "163.0132217903322",
        "aphelion_distance": "3.021326230834375",
        "perihelion_time": "2457963.492596281811",
        "mean_anomaly": "6.821056326192928",
        "mean_motion": ".3246977312235401",
        "equinox": "J2000",
        "orbit_class": {
            "orbit_class_type": "AMO",
            "orbit_class_description": "Near-Earth asteroid orbits similar to that of 1221 Amor",
            "orbit_class_range": "1.017 AU < q (perihelion) < 1.3 AU"
        }
    },
    "is_sentry_object": false
}